STARLINK-31958          
1 59924U 24106C   26068.05582930  .00000854  00000+0  40548-4 0  9997
2 59924  43.0014 321.5884 0002831 258.5288 101.5246 15.27599767100598
TEVEL2-3                
1 63218U 25052J   26068.64540225  .00020365  00000+0  69446-3 0  9991
2 63218  97.3994 324.7775 0004761 105.7353 254.4413 15.30377031 54855
