[{"OBJECT_NAME":"STARLINK-31958","OBJECT_ID":"2024-106C","EPOCH":"2026-03-09T01:20:23.651520","MEAN_MOTION":15.27599767,"ECCENTRICITY":0.00028317,"INCLINATION":43.0014,"RA_OF_ASC_NODE":321.5884,"ARG_OF_PERICENTER":258.5288,"MEAN_ANOMALY":101.5246,"EPHEMERIS_TYPE":0,"CLASSIFICATION_TYPE":"U","NORAD_CAT_ID":59924,"ELEMENT_SET_NO":999,"REV_AT_EPOCH":10059,"BSTAR":4.0548466e-5,"MEAN_MOTION_DOT":8.54e-6,"MEAN_MOTION_DDOT":0},{"OBJECT_NAME":"TEVEL2-3","OBJECT_ID":"2025-052J","EPOCH":"2026-03-09T15:29:22.754400","MEAN_MOTION":15.30377031,"ECCENTRICITY":0.0004761,"INCLINATION":97.3994,"RA_OF_ASC_NODE":324.7775,"ARG_OF_PERICENTER":105.7353,"MEAN_ANOMALY":254.4413,"EPHEMERIS_TYPE":0,"CLASSIFICATION_TYPE":"U","NORAD_CAT_ID":63218,"ELEMENT_SET_NO":999,"REV_AT_EPOCH":5485,"BSTAR":0.00069446,"MEAN_MOTION_DOT":0.00020365,"MEAN_MOTION_DDOT":0}]
